{
  "type": "FeatureCollection",
  "features": [
    {
      "type": "Feature",
      "properties": {
        "norad_id": 66376,
        "name": "SHIYAN-32 01",
        "group": "last-30-days",
        "lat": -47.09768734456769,
        "lon": 173.09064619303814,
        "alt_km": 442.05145419371,
        "timestamp": "2025-12-02T08:59:31.502384+00:00",
        "meta_object_name": "SHIYAN-32 01",
        "meta_object_id": "2025-255A",
        "meta_epoch": "2025-12-02T03:03:29.323872",
        "meta_mean_motion": 15.42214379,
        "meta_eccentricity": 0.0013384,
        "meta_inclination": 52.9965,
        "meta_ra_of_asc_node": 228.5112,
        "meta_arg_of_pericenter": 9.3249,
        "meta_mean_anomaly": 350.8001,
        "meta_ephemeris_type": 0,
        "meta_classification_type": "U",
        "meta_norad_cat_id": 66376,
        "meta_element_set_no": 999,
        "meta_rev_at_epoch": 371,
        "meta_bstar": 0.00058188,
        "meta_mean_motion_dot": 0.00025112,
        "meta_mean_motion_ddot": 0,
        "tle_line1": "1 66376U 25255A   25336.12742273  .00025112  00000+0  58188-3 0  9997",
        "tle_line2": "2 66376  52.9965 228.5112 0013384   9.3249 350.8001 15.42214379  3719"
      },
      "geometry": {
        "type": "Point",
        "coordinates": [
          173.09064619303814,
          -47.09768734456769
        ]
      }
    },
    {
      "type": "Feature",
      "properties": {
        "norad_id": 66377,
        "name": "CZ-11 DEB",
        "group": "last-30-days",
        "lat": -4.04926666824685,
        "lon": -135.8464639746757,
        "alt_km": 428.1370113832945,
        "timestamp": "2025-12-02T08:59:31.502397+00:00",
        "meta_object_name": "CZ-11 DEB",
        "meta_object_id": "2025-255B",
        "meta_epoch": "2025-12-02T02:47:51.191808",
        "meta_mean_motion": 15.43410893,
        "meta_eccentricity": 0.0013911,
        "meta_inclination": 52.9966,
        "meta_ra_of_asc_node": 228.4422,
        "meta_arg_of_pericenter": 6.8822,
        "meta_mean_anomaly": 353.2371,
        "meta_ephemeris_type": 0,
        "meta_classification_type": "U",
        "meta_norad_cat_id": 66377,
        "meta_element_set_no": 999,
        "meta_rev_at_epoch": 357,
        "meta_bstar": 0.00098482,
        "meta_mean_motion_dot": 0.00044688,
        "meta_mean_motion_ddot": 0,
        "tle_line1": "1 66377U 25255B   25336.11656472  .00044688  00000+0  98482-3 0  9992",
        "tle_line2": "2 66377  52.9966 228.4422 0013911   6.8822 353.2371 15.43410893  3570"
      },
      "geometry": {
        "type": "Point",
        "coordinates": [
          -135.8464639746757,
          -4.04926666824685
        ]
      }
    },
    {
      "type": "Feature",
      "properties": {
        "norad_id": 66378,
        "name": "SHIYAN-32 02",
        "group": "last-30-days",
        "lat": 16.896545588614085,
        "lon": -119.59368789220196,
        "alt_km": 424.52575808232814,
        "timestamp": "2025-12-02T08:59:31.502407+00:00",
        "meta_object_name": "SHIYAN-32 02",
        "meta_object_id": "2025-255C",
        "meta_epoch": "2025-12-02T02:41:09.270240",
        "meta_mean_motion": 15.43916368,
        "meta_eccentricity": 0.0012616,
        "meta_inclination": 52.9979,
        "meta_ra_of_asc_node": 228.4148,
        "meta_arg_of_pericenter": 8.2276,
        "meta_mean_anomaly": 351.8933,
        "meta_ephemeris_type": 0,
        "meta_classification_type": "U",
        "meta_norad_cat_id": 66378,
        "meta_element_set_no": 999,
        "meta_rev_at_epoch": 357,
        "meta_bstar": 0.001261,
        "meta_mean_motion_dot": 0.00058403,
        "meta_mean_motion_ddot": 0,
        "tle_line1": "1 66378U 25255C   25336.11191285  .00058403  00000+0  12610-2 0  9997",
        "tle_line2": "2 66378  52.9979 228.4148 0012616   8.2276 351.8933 15.43916368  3576"
      },
      "geometry": {
        "type": "Point",
        "coordinates": [
          -119.59368789220196,
          16.896545588614085
        ]
      }
    },
    {
      "type": "Feature",
      "properties": {
        "norad_id": 66379,
        "name": "SHIYAN-32 03",
        "group": "last-30-days",
        "lat": -28.218637489332494,
        "lon": -156.59445454810188,
        "alt_km": 435.05565177010703,
        "timestamp": "2025-12-02T08:59:31.502420+00:00",
        "meta_object_name": "SHIYAN-32 03",
        "meta_object_id": "2025-255D",
        "meta_epoch": "2025-12-02T02:55:43.715136",
        "meta_mean_motion": 15.4257132,
        "meta_eccentricity": 0.0015396,
        "meta_inclination": 52.9972,
        "meta_ra_of_asc_node": 228.4783,
        "meta_arg_of_pericenter": 10.206,
        "meta_mean_anomaly": 349.9253,
        "meta_ephemeris_type": 0,
        "meta_classification_type": "U",
        "meta_norad_cat_id": 66379,
        "meta_element_set_no": 999,
        "meta_rev_at_epoch": 359,
        "meta_bstar": 0.00056342,
        "meta_mean_motion_dot": 0.00024622,
        "meta_mean_motion_ddot": 0,
        "tle_line1": "1 66379U 25255D   25336.12203374  .00024622  00000+0  56342-3 0  9999",
        "tle_line2": "2 66379  52.9972 228.4783 0015396  10.2060 349.9253 15.42571320  3596"
      },
      "geometry": {
        "type": "Point",
        "coordinates": [
          -156.59445454810188,
          -28.218637489332494
        ]
      }
    },
    {
      "type": "Feature",
      "properties": {
        "norad_id": 66380,
        "name": "STARLINK-35139",
        "group": "last-30-days",
        "lat": -52.07108581722279,
        "lon": -120.6761319379104,
        "alt_km": 452.51562683832526,
        "timestamp": "2025-12-02T08:59:31.502432+00:00",
        "meta_object_name": "STARLINK-35139",
        "meta_object_id": "2025-257A",
        "meta_epoch": "2025-12-02T04:00:03.998880",
        "meta_mean_motion": 15.39809698,
        "meta_eccentricity": 9.66e-05,
        "meta_inclination": 53.1592,
        "meta_ra_of_asc_node": 314.475,
        "meta_arg_of_pericenter": 82.2418,
        "meta_mean_anomaly": 124.0639,
        "meta_ephemeris_type": 0,
        "meta_classification_type": "U",
        "meta_norad_cat_id": 66380,
        "meta_element_set_no": 999,
        "meta_rev_at_epoch": 473,
        "meta_bstar": -0.0087437,
        "meta_mean_motion_dot": -0.00337212,
        "meta_mean_motion_ddot": 0,
        "tle_line1": "1 66380U 25257A   25336.16671295 -.00337212  00000+0 -87437-2 0  9990",
        "tle_line2": "2 66380  53.1592 314.4750 0000966  82.2418 124.0639 15.39809698  4737"
      },
      "geometry": {
        "type": "Point",
        "coordinates": [
          -120.6761319379104,
          -52.07108581722279
        ]
      }
    },
    {
      "type": "Feature",
      "properties": {
        "norad_id": 66381,
        "name": "STARLINK-35158",
        "group": "last-30-days",
        "lat": -51.63534950942375,
        "lon": -117.79662746298382,
        "alt_km": 452.69447706881056,
        "timestamp": "2025-12-02T08:59:31.502443+00:00",
        "meta_object_name": "STARLINK-35158",
        "meta_object_id": "2025-257B",
        "meta_epoch": "2025-12-02T04:00:03.998880",
        "meta_mean_motion": 15.39808271,
        "meta_eccentricity": 0.0001216,
        "meta_inclination": 53.1591,
        "meta_ra_of_asc_node": 314.4707,
        "meta_arg_of_pericenter": 90.3966,
        "meta_mean_anomaly": 117.7462,
        "meta_ephemeris_type": 0,
        "meta_classification_type": "U",
        "meta_norad_cat_id": 66381,
        "meta_element_set_no": 999,
        "meta_rev_at_epoch": 479,
        "meta_bstar": -0.008705,
        "meta_mean_motion_dot": -0.00335779,
        "meta_mean_motion_ddot": 0,
        "tle_line1": "1 66381U 25257B   25336.16671295 -.00335779  00000+0 -87050-2 0  9998",
        "tle_line2": "2 66381  53.1591 314.4707 0001216  90.3966 117.7462 15.39808271  4791"
      },
      "geometry": {
        "type": "Point",
        "coordinates": [
          -117.79662746298382,
          -51.63534950942375
        ]
      }
    },
    {
      "type": "Feature",
      "properties": {
        "norad_id": 66382,
        "name": "STARLINK-35639",
        "group": "last-30-days",
        "lat": -42.22799156273604,
        "lon": -89.43631209577543,
        "alt_km": 445.07413547456963,
        "timestamp": "2025-12-02T08:59:31.502454+00:00",
        "meta_object_name": "STARLINK-35639",
        "meta_object_id": "2025-257C",
        "meta_epoch": "2025-12-02T04:00:03.998880",
        "meta_mean_motion": 15.43069449,
        "meta_eccentricity": 0.0001547,
        "meta_inclination": 53.1589,
        "meta_ra_of_asc_node": 314.4308,
        "meta_arg_of_pericenter": 87.8277,
        "meta_mean_anomaly": 139.5882,
        "meta_ephemeris_type": 0,
        "meta_classification_type": "U",
        "meta_norad_cat_id": 66382,
        "meta_element_set_no": 999,
        "meta_rev_at_epoch": 479,
        "meta_bstar": -0.051324,
        "meta_mean_motion_dot": -0.02047178,
        "meta_mean_motion_ddot": 0,
        "tle_line1": "1 66382U 25257C   25336.16671295 -.02047178  00000+0 -51324-1 0  9998",
        "tle_line2": "2 66382  53.1589 314.4308 0001547  87.8277 139.5882 15.43069449  4798"
      },
      "geometry": {
        "type": "Point",
        "coordinates": [
          -89.43631209577543,
          -42.22799156273604
        ]
      }
    }
  ]
}